[{"OBJECT_NAME":"SDA_1670","OBJECT_ID":"2025-230G","EPOCH":"2026-03-09T17:23:00.469536","MEAN_MOTION":13.84837821,"ECCENTRICITY":0.00038733,"INCLINATION":81.2981,"RA_OF_ASC_NODE":303.9295,"ARG_OF_PERICENTER":76.4422,"MEAN_ANOMALY":283.7167,"EPHEMERIS_TYPE":0,"CLASSIFICATION_TYPE":"U","NORAD_CAT_ID":65980,"ELEMENT_SET_NO":999,"REV_AT_EPOCH":2004,"BSTAR":9.0952862e-5,"MEAN_MOTION_DOT":1.14e-6,"MEAN_MOTION_DDOT":0},{"OBJECT_NAME":"YAOGAN-50 01","OBJECT_ID":"2026-006A","EPOCH":"2026-03-09T21:57:44.750592","MEAN_MOTION":13.83251108,"ECCENTRICITY":0.00011096,"INCLINATION":142.0346,"RA_OF_ASC_NODE":96.0351,"ARG_OF_PERICENTER":270.9545,"MEAN_ANOMALY":89.1047,"EPHEMERIS_TYPE":0,"CLASSIFICATION_TYPE":"U","NORAD_CAT_ID":67433,"ELEMENT_SET_NO":999,"REV_AT_EPOCH":768,"BSTAR":0.00014147475,"MEAN_MOTION_DOT":3.45e-6,"MEAN_MOTION_DDOT":0}]
